NORAD_CAT_ID,OBJECT_NAME,OBJECT_TYPE,EPOCH,MEAN_MOTION,ECCENTRICITY,INCLINATION,RA_OF_ASC_NODE,ARG_OF_PERICENTER,MEAN_ANOMALY,BSTAR,MEAN_MOTION_DOT,MEAN_MOTION_DDOT,TLE_LINE0,TLE_LINE1,TLE_LINE2,SEMIMAJOR_AXIS,PERIOD,APOGEE,PERIGEE,DECAYED
52129.0,STARLINK-3661,PAYLOAD,2022-03-22 16:00:00,15.84434814,8.3e-05,53.2172,127.114,247.8614,164.5861,-0.0042076,-0.00888221,0.0,0 STARLINK-3661,1 52129U 22029AT  22081.66667824 -.00888221  00000-0 -42076-2 0  9994,2 52129  53.2172 127.1140 0000830 247.8614 164.5861 15.84434814  1802,6696.054,90.884,318.474,317.363,0.0
52129.0,STARLINK-3661,PAYLOAD,2022-03-23 12:00:00,15.82853929,0.0001146,53.2174,122.9266,68.0833,58.0359,-0.0044663,-0.0087552,0.0,0 STARLINK-3661,1 52129U 22029AT  22082.50001157 -.00875520  00000-0 -44663-2 0  9991,2 52129  53.2174 122.9266 0001146  68.0833  58.0359 15.82853929  1936,6700.511,90.975,323.144,321.608,0.0
52129.0,STARLINK-3661,PAYLOAD,2022-03-23 14:00:01,15.82695129,0.0001099,53.2172,122.5083,73.6516,167.5751,-0.0044844,-0.00872738,0.0,0 STARLINK-3661,1 52129U 22029AT  22082.58334491 -.00872738  00000-0 -44844-2 0  9998,2 52129  53.2172 122.5083 0001099  73.6516 167.5751 15.82695129  1460,6700.96,90.984,323.561,322.088,0.0
52129.0,STARLINK-3661,PAYLOAD,2022-03-23 22:00:00,15.82067532,0.0001036,53.2174,120.8341,57.773,283.41,-0.0046389,-0.00876057,0.0,0 STARLINK-3661,1 52129U 22029AT  22082.91667824 -.00876057  00000-0 -46389-2 0  9998,2 52129  53.2174 120.8341 0001036  57.7730 283.4100 15.82067532  1515,6702.732,91.02,325.291,323.902,0.0
52129.0,STARLINK-3661,PAYLOAD,2022-03-24 04:00:00,15.81598201,0.0001095999999999,53.2177,119.5811,61.3431,264.309,-0.0047622,-0.00879397,0.0,0 STARLINK-3661,1 52129U 22029AT  22083.16667824 -.00879397  00000-0 -47622-2 0  9997,2 52129  53.2177 119.5811 0001096  61.3431 264.3090 15.81598201  2035,6704.058000000001,91.047,326.657,325.188,0.0
52129.0,STARLINK-3661,PAYLOAD,2022-03-24 14:00:01,15.80807457,0.0001174,53.2172,117.4965,63.899,114.9254,-0.0048979,-0.0087242,0.0,0 STARLINK-3661,1 52129U 22029AT  22083.58334491 -.00872420  00000-0 -48979-2 0  9990,2 52129  53.2172 117.4965 0001174  63.8990 114.9254 15.80807457  1622,6706.293000000002,91.093,328.945,327.371,0.0
52129.0,STARLINK-3661,PAYLOAD,2022-03-24 22:00:00,15.80179485,0.0001139,53.2174,115.8269,61.5502,214.962,-0.0050575,-0.00874745,0.0,0 STARLINK-3661,1 52129U 22029AT  22083.91667824 -.00874745  00000-0 -50575-2 0  9993,2 52129  53.2174 115.8269 0001139  61.5502 214.9620 15.80179485  2158,6708.07,91.129,330.699,329.171,0.0
52129.0,STARLINK-3661,PAYLOAD,2022-03-25 14:00:01,15.78921484,0.0001107999999999,53.2171,112.4988,62.3573,47.2583,-0.0053597,-0.00874941,0.0,0 STARLINK-3661,1 52129U 22029AT  22084.58334491 -.00874941  00000-0 -53597-2 0  9993,2 52129  53.2171 112.4988 0001108  62.3573  47.2583 15.78921484  1783,6711.632,91.201,334.241,332.754,0.0
52129.0,STARLINK-3661,PAYLOAD,2022-03-25 20:00:01,15.78449067,0.0001037,53.2175,111.2499,68.357,22.8944,-0.0054714,-0.00874217,0.0,0 STARLINK-3661,1 52129U 22029AT  22084.83334491 -.00874217  00000-0 -54714-2 0  9999,2 52129  53.2175 111.2499 0001037  68.3570  22.8944 15.78449067  2306,6712.971,91.229,335.532,334.14,0.0
52129.0,STARLINK-3661,PAYLOAD,2022-03-25 22:00:01,15.78291316,0.0001135,53.2174,110.8338,74.8191,130.2821,-0.0055038,-0.00873255,0.0,0 STARLINK-3661,1 52129U 22029AT  22084.91668981 -.00873255  00000-0 -55038-2 0  9993,2 52129  53.2174 110.8338 0001135  74.8191 130.2821 15.78291316  1839,6713.419,91.238,336.046,334.522,0.0
52129.0,STARLINK-3661,PAYLOAD,2022-03-26 12:00:00,15.77188976,0.0001123,53.2176,107.93,70.6529,209.5437,-0.0057711,-0.00871428,0.0,0 STARLINK-3661,1 52129U 22029AT  22085.50001157 -.00871428  00000-0 -57711-2 0  9995,2 52129  53.2176 107.9300 0001123  70.6529 209.5437 15.77188976  2406,6716.545999999999,91.302,339.166,337.657,0.0
52129.0,STARLINK-3661,PAYLOAD,2022-03-26 14:00:01,15.77034587,0.000103,53.2171,107.5149,60.5928,333.0083,-0.0058406,-0.00875388,0.0,0 STARLINK-3661,1 52129U 22029AT  22085.58334491 -.00875388  00000-0 -58406-2 0  9994,2 52129  53.2171 107.5149 0001030  60.5928 333.0083 15.77034587  1942,6716.985,91.311,339.542,338.158,0.0
52129.0,STARLINK-3661,PAYLOAD,2022-03-26 22:00:00,15.76403708,0.0001284,53.2172,105.8547,48.6661,78.0866,-0.0059928,-0.00873524,0.0,0 STARLINK-3661,1 52129U 22029AT  22085.91667824 -.00873524  00000-0 -59928-2 0  9990,2 52129  53.2172 105.8547 0001284  48.6661  78.0866 15.76403708  1992,6718.776999999999,91.347,341.504,339.779,0.0
52129.0,STARLINK-3661,PAYLOAD,2022-03-27 04:00:00,15.75932796,0.0001541999999999,53.2174,104.6129,37.1851,68.9327,-0.0061306999999999,-0.0087505,0.0,0 STARLINK-3661,1 52129U 22029AT  22086.16667824 -.00875050  00000-0 -61307-2 0  9998,2 52129  53.2174 104.6129 0001542  37.1851  68.9327 15.75932796  2510,6720.115,91.374,343.016,340.944,0.0
52129.0,STARLINK-3661,PAYLOAD,2022-03-27 14:00:01,15.75146894,0.0001038,53.2172,102.5451,67.8349,242.9461,-0.0063473,-0.00874893,0.0,0 STARLINK-3661,1 52129U 22029AT  22086.58334491 -.00874893  00000-0 -63473-2 0  9995,2 52129  53.2172 102.5451 0001038  67.8349 242.9461 15.75146894  2109,6722.35,91.42,344.913,343.517,0.0
52129.0,STARLINK-3661,PAYLOAD,2022-03-27 22:00:01,15.74515646,0.0001155,53.2174,100.8894,48.7483,352.9818,-0.0065124,-0.00873333,0.0,0 STARLINK-3661,1 52129U 22029AT  22086.91668981 -.00873333  00000-0 -65124-2 0  9999,2 52129  53.2174 100.8894 0001155  48.7483 352.9818 15.74515646  2157,6724.147,91.457,346.788,345.235,0.0
52129.0,STARLINK-3661,PAYLOAD,2022-03-28 04:00:00,15.7403902,0.000127,53.2178,99.6513,43.6963,335.6326,-0.0065551999999999,-0.00862185,0.0,0 STARLINK-3661,1 52129U 22029AT  22087.16667824 -.00862185  00000-0 -65552-2 0  9990,2 52129  53.2178  99.6513 0001270  43.6963 335.6326 15.74039020  2664,6725.504,91.484,348.223,346.515,0.0
52129.0,STARLINK-3661,PAYLOAD,2022-03-28 14:00:01,15.73209105,0.0001227,53.2171,97.5887,62.2895,158.9357,-6.6893e-05,-0.0001,0.0,0 STARLINK-3661,1 52129U 22029AT  22087.58335648 -.00010000  00000-0 -66893-4 0  9994,2 52129  53.2171  97.5887 0001227  62.2895 158.9357 15.73209105  2731,6727.869000000002,91.533,350.56,348.909,0.0
52129.0,STARLINK-3661,PAYLOAD,2022-03-28 22:00:00,15.73184361,0.000122,53.2171,95.9378,48.4567,261.6494,0.00022434,0.00030959,0.0,0 STARLINK-3661,1 52129U 22029AT  22087.91667824  .00030959  00000-0  22434-3 0  9990,2 52129  53.2171  95.9378 0001220  48.4567 261.6494 15.73184361  2317,6727.94,91.534,350.626,348.9840000000001,0.0
52129.0,STARLINK-3661,PAYLOAD,2022-03-29 04:00:00,15.73240335,0.0001095999999999,53.2163,94.702,52.1725,234.6277,0.00025342,0.00035156,0.0,0 STARLINK-3661,1 52129U 22029AT  22088.16667824  .00035156  00000-0  25342-3 0  9993,2 52129  53.2163  94.7020 0001096  52.1725 234.6277 15.73240335  2827,6727.78,91.531,350.3830000000001,348.908,0.0
52129.0,STARLINK-3661,PAYLOAD,2022-03-29 14:00:01,15.73293819,0.0001286999999999,53.2161,92.6405,47.9274,80.1019,-0.0004105,-0.00058066,0.0,0 STARLINK-3661,1 52129U 22029AT  22088.58334491 -.00058066  00000-0 -41050-3 0  9991,2 52129  53.2161  92.6405 0001287  47.9274  80.1019 15.73293819  2410,6727.628000000002,91.528,350.3590000000001,348.62699999999984,0.0
52129.0,STARLINK-3661,PAYLOAD,2022-03-29 22:00:00,15.73261508,0.00012,53.2163,90.9888,60.8246,156.2218,-0.0002241,-0.00032034,0.0,0 STARLINK-3661,1 52129U 22029AT  22088.91667824 -.00032034  00000-0 -22410-3 0  9993,2 52129  53.2163  90.9888 0001200  60.8246 156.2218 15.73261508  2478,6727.72,91.53,350.392,348.777,0.0
52129.0,STARLINK-3661,PAYLOAD,2022-03-30 12:00:00,15.73181304,0.0001329,53.2161,88.1041,49.7879,232.9715,0.00017986,0.00024676,0.0,0 STARLINK-3661,1 52129U 22029AT  22089.50001157  .00024676  00000-0  17986-3 0  9993,2 52129  53.2161  88.1041 0001329  49.7879 232.9715 15.73181304  3038,6727.948,91.534,350.708,348.9190000000001,0.0
52129.0,STARLINK-3661,PAYLOAD,2022-03-30 14:00:01,15.73183788,0.000126,53.2159,87.6911,51.2097,343.8444,0.00016837,0.00023058,0.0,0 STARLINK-3661,1 52129U 22029AT  22089.58335648  .00023058  00000-0  16837-3 0  9993,2 52129  53.2159  87.6911 0001260  51.2097 343.8444 15.73183788  2576,6727.941,91.534,350.654,348.959,0.0
52129.0,STARLINK-3661,PAYLOAD,2022-03-30 20:00:01,15.731845000000002,0.0001,53.216,86.4525,57.8665,313.8057,-8.1387e-05,-0.00012017,0.0,0 STARLINK-3661,1 52129U 22029AT  22089.83334491 -.00012017  00000-0 -81387-4 0  9994,2 52129  53.2160  86.4525 0001000  57.8665 313.8057 15.73184500  3088,6727.939,91.534,350.477,349.13199999999995,0.0
52129.0,STARLINK-3661,PAYLOAD,2022-03-30 22:00:00,15.73172025,9.89e-05,53.216,86.04,59.8036,64.09899999999999,9.6155e-05,0.0001288,0.0,0 STARLINK-3661,1 52129U 22029AT  22089.91667824  .00012880  00000-0  96155-4 0  9997,2 52129  53.2160  86.0400 0000989  59.8036  64.0990 15.73172025  2635,6727.975,91.535,350.505,349.175,0.0
52129.0,STARLINK-3661,PAYLOAD,2022-03-31 04:00:00,15.73218829,0.000108,53.2162,84.8042,55.2692,45.3205,-0.00021503,-0.00030711,0.0,0 STARLINK-3661,1 52129U 22029AT  22090.16667824 -.00030711  00000-0 -21503-3 0  9995,2 52129  53.2162  84.8042 0001080  55.2692  45.3205 15.73218829  3147,6727.840999999999,91.532,350.43300000000005,348.98,0.0
52129.0,STARLINK-3661,PAYLOAD,2022-03-31 14:00:01,15.73191426,0.0001252,53.2162,82.7423,56.9128,244.848,0.0003034,0.00042158,0.0,0 STARLINK-3661,1 52129U 22029AT  22090.58334491  .00042158  00000-0  30340-3 0  9997,2 52129  53.2162  82.7423 0001252  56.9128 244.8480 15.73191426  2738,6727.92,91.534,350.62699999999984,348.94199999999995,0.0
52129.0,STARLINK-3661,PAYLOAD,2022-03-31 20:00:01,15.73232986,0.0001228,53.2165,81.5036,67.7065,210.7732,0.00013334,0.0001816,0.0,0 STARLINK-3661,1 52129U 22029AT  22090.83334491  .00018160  00000-0  13334-3 0  9995,2 52129  53.2165  81.5036 0001228  67.7065 210.7732 15.73232986  3247,6727.801,91.531,350.492,348.84,0.0
